{
  "type": "FeatureCollection",
  "features": [
    {
      "type": "Feature",
      "properties": {
        "norad_id": 31351,
        "name": "FENGYUN 1C DEB",
        "group": "fengyun-1c-debris",
        "lat": 42.11366937618074,
        "lon": -28.07517917011278,
        "alt_km": 799.455412695328,
        "timestamp": "2025-12-19T08:58:49.620282+00:00",
        "meta_object_name": "FENGYUN 1C DEB",
        "meta_object_id": "1999-025BRF",
        "meta_epoch": "2025-12-05T22:12:04.612896",
        "meta_mean_motion": 14.06922487,
        "meta_eccentricity": 0.00937925,
        "meta_inclination": 98.7943,
        "meta_ra_of_asc_node": 326.89,
        "meta_arg_of_pericenter": 70.3082,
        "meta_mean_anomaly": 290.8177,
        "meta_ephemeris_type": 0,
        "meta_classification_type": "U",
        "meta_norad_cat_id": 31351,
        "meta_element_set_no": 999,
        "meta_rev_at_epoch": 61279,
        "meta_bstar": 0.00046990462,
        "meta_mean_motion_dot": 7.73e-06,
        "meta_mean_motion_ddot": 0,
        "tle_line1": "1 31351U 99025BRF 25339.92505339  .00000773  00000+0  46990-3 0  9993",
        "tle_line2": "2 31351  98.7943 326.8900 0093792  70.3082 290.8177 14.06922487612795"
      },
      "geometry": {
        "type": "Point",
        "coordinates": [
          -28.07517917011278,
          42.11366937618074
        ]
      }
    },
    {
      "type": "Feature",
      "properties": {
        "norad_id": 31353,
        "name": "FENGYUN 1C DEB",
        "group": "fengyun-1c-debris",
        "lat": 79.5720253664273,
        "lon": -140.4905952304249,
        "alt_km": 651.2824249283985,
        "timestamp": "2025-12-19T08:58:49.620297+00:00",
        "meta_object_name": "FENGYUN 1C DEB",
        "meta_object_id": "1999-025BRH",
        "meta_epoch": "2025-12-13T14:53:27.622176",
        "meta_mean_motion": 14.29852447,
        "meta_eccentricity": 0.02291816,
        "meta_inclination": 98.9913,
        "meta_ra_of_asc_node": 272.916,
        "meta_arg_of_pericenter": 64.951,
        "meta_mean_anomaly": 297.5274,
        "meta_ephemeris_type": 0,
        "meta_classification_type": "U",
        "meta_norad_cat_id": 31353,
        "meta_element_set_no": 999,
        "meta_rev_at_epoch": 96597,
        "meta_bstar": 0.00070467649,
        "meta_mean_motion_dot": 2.359e-05,
        "meta_mean_motion_ddot": 0,
        "tle_line1": "1 31353U 99025BRH 25347.62045859  .00002359  00000+0  70468-3 0  9996",
        "tle_line2": "2 31353  98.9913 272.9160 0229181  64.9510 297.5274 14.29852447965979"
      },
      "geometry": {
        "type": "Point",
        "coordinates": [
          -140.4905952304249,
          79.5720253664273
        ]
      }
    },
    {
      "type": "Feature",
      "properties": {
        "norad_id": 31357,
        "name": "FENGYUN 1C DEB",
        "group": "fengyun-1c-debris",
        "lat": 80.47210684302458,
        "lon": -40.33870179785967,
        "alt_km": 857.812157793006,
        "timestamp": "2025-12-19T08:58:49.620307+00:00",
        "meta_object_name": "FENGYUN 1C DEB",
        "meta_object_id": "1999-025BRM",
        "meta_epoch": "2025-12-17T20:10:28.341984",
        "meta_mean_motion": 14.18527711,
        "meta_eccentricity": 0.00488156,
        "meta_inclination": 98.6105,
        "meta_ra_of_asc_node": 22.6941,
        "meta_arg_of_pericenter": 277.653,
        "meta_mean_anomaly": 261.0882,
        "meta_ephemeris_type": 0,
        "meta_classification_type": "U",
        "meta_norad_cat_id": 31357,
        "meta_element_set_no": 999,
        "meta_rev_at_epoch": 96776,
        "meta_bstar": 3.8775773e-05,
        "meta_mean_motion_dot": 3.8e-07,
        "meta_mean_motion_ddot": 0,
        "tle_line1": "1 31357U 99025BRM 25351.84060581  .00000038  00000+0  38776-4 0  9997",
        "tle_line2": "2 31357  98.6105  22.6941 0048815 277.6530 261.0882 14.18527711967769"
      },
      "geometry": {
        "type": "Point",
        "coordinates": [
          -40.33870179785967,
          80.47210684302458
        ]
      }
    },
    {
      "type": "Feature",
      "properties": {
        "norad_id": 31358,
        "name": "FENGYUN 1C DEB",
        "group": "fengyun-1c-debris",
        "lat": -59.64588184734885,
        "lon": 92.11799170401866,
        "alt_km": 536.1157644994701,
        "timestamp": "2025-12-19T08:58:49.620317+00:00",
        "meta_object_name": "FENGYUN 1C DEB",
        "meta_object_id": "1999-025BRN",
        "meta_epoch": "2025-12-18T06:39:30.451392",
        "meta_mean_motion": 15.20367944,
        "meta_eccentricity": 0.00441797,
        "meta_inclination": 98.9035,
        "meta_ra_of_asc_node": 286.3513,
        "meta_arg_of_pericenter": 97.4798,
        "meta_mean_anomaly": 263.1455,
        "meta_ephemeris_type": 0,
        "meta_classification_type": "U",
        "meta_norad_cat_id": 31358,
        "meta_element_set_no": 999,
        "meta_rev_at_epoch": 97654,
        "meta_bstar": 0.0073551649,
        "meta_mean_motion_dot": 0.00167774,
        "meta_mean_motion_ddot": 0,
        "tle_line1": "1 31358U 99025BRN 25352.27743578  .00167774  00000+0  73552-2 0  9990",
        "tle_line2": "2 31358  98.9035 286.3513 0044179  97.4798 263.1455 15.20367944976541"
      },
      "geometry": {
        "type": "Point",
        "coordinates": [
          92.11799170401866,
          -59.64588184734885
        ]
      }
    },
    {
      "type": "Feature",
      "properties": {
        "norad_id": 31361,
        "name": "FENGYUN 1C DEB",
        "group": "fengyun-1c-debris",
        "lat": -30.916769502930695,
        "lon": 143.26722599957762,
        "alt_km": 870.0207698577615,
        "timestamp": "2025-12-19T08:58:49.620327+00:00",
        "meta_object_name": "FENGYUN 1C DEB",
        "meta_object_id": "1999-025BRR",
        "meta_epoch": "2025-12-17T05:10:36.657120",
        "meta_mean_motion": 14.17747853,
        "meta_eccentricity": 0.00460822,
        "meta_inclination": 98.5511,
        "meta_ra_of_asc_node": 326.359,
        "meta_arg_of_pericenter": 58.0386,
        "meta_mean_anomaly": 302.5258,
        "meta_ephemeris_type": 0,
        "meta_classification_type": "U",
        "meta_norad_cat_id": 31361,
        "meta_element_set_no": 999,
        "meta_rev_at_epoch": 96627,
        "meta_bstar": 0.00011593699,
        "meta_mean_motion_dot": 1.97e-06,
        "meta_mean_motion_ddot": 0,
        "tle_line1": "1 31361U 99025BRR 25351.21570205  .00000197  00000+0  11594-3 0  9996",
        "tle_line2": "2 31361  98.5511 326.3590 0046082  58.0386 302.5258 14.17747853966275"
      },
      "geometry": {
        "type": "Point",
        "coordinates": [
          143.26722599957762,
          -30.916769502930695
        ]
      }
    },
    {
      "type": "Feature",
      "properties": {
        "norad_id": 31362,
        "name": "FENGYUN 1C DEB",
        "group": "fengyun-1c-debris",
        "lat": -0.16753426583102496,
        "lon": 167.52313244095097,
        "alt_km": 840.1698856347557,
        "timestamp": "2025-12-19T08:58:49.620337+00:00",
        "meta_object_name": "FENGYUN 1C DEB",
        "meta_object_id": "1999-025BRS",
        "meta_epoch": "2025-12-18T05:01:41.672640",
        "meta_mean_motion": 14.17382659,
        "meta_eccentricity": 0.00192472,
        "meta_inclination": 98.6526,
        "meta_ra_of_asc_node": 346.4149,
        "meta_arg_of_pericenter": 80.7275,
        "meta_mean_anomaly": 279.6076,
        "meta_ephemeris_type": 0,
        "meta_classification_type": "U",
        "meta_norad_cat_id": 31362,
        "meta_element_set_no": 999,
        "meta_rev_at_epoch": 96653,
        "meta_bstar": 0.00014281029,
        "meta_mean_motion_dot": 2.47e-06,
        "meta_mean_motion_ddot": 0,
        "tle_line1": "1 31362U 99025BRS 25352.20951010  .00000247  00000+0  14281-3 0  9996",
        "tle_line2": "2 31362  98.6526 346.4149 0019247  80.7275 279.6076 14.17382659966538"
      },
      "geometry": {
        "type": "Point",
        "coordinates": [
          167.52313244095097,
          -0.16753426583102496
        ]
      }
    },
    {
      "type": "Feature",
      "properties": {
        "norad_id": 31364,
        "name": "FENGYUN 1C DEB",
        "group": "fengyun-1c-debris",
        "lat": 42.96333303994475,
        "lon": -57.99153463599351,
        "alt_km": 772.6805753118206,
        "timestamp": "2025-12-19T08:58:49.620347+00:00",
        "meta_object_name": "FENGYUN 1C DEB",
        "meta_object_id": "1999-025BRU",
        "meta_epoch": "2025-12-18T13:40:17.788512",
        "meta_mean_motion": 14.14716692,
        "meta_eccentricity": 0.00931712,
        "meta_inclination": 99.2624,
        "meta_ra_of_asc_node": 112.4325,
        "meta_arg_of_pericenter": 132.6564,
        "meta_mean_anomaly": 228.2507,
        "meta_ephemeris_type": 0,
        "meta_classification_type": "U",
        "meta_norad_cat_id": 31364,
        "meta_element_set_no": 999,
        "meta_rev_at_epoch": 94959,
        "meta_bstar": 0.0022149083,
        "meta_mean_motion_dot": 4.402e-05,
        "meta_mean_motion_ddot": 0,
        "tle_line1": "1 31364U 99025BRU 25352.56965033  .00004402  00000+0  22149-2 0  9995",
        "tle_line2": "2 31364  99.2624 112.4325 0093171 132.6564 228.2507 14.14716692949590"
      },
      "geometry": {
        "type": "Point",
        "coordinates": [
          -57.99153463599351,
          42.96333303994475
        ]
      }
    }
  ]
}